{
  "norad_id": 63116,
  "name": "STARLINK-11591 [DTC]",
  "history": [
    {
      "epoch": "2026-03-28T18:56:52.112256",
      "apogee_km": 358.0316316592871,
      "perigee_km": 354.68431827692984,
      "latitude_deg": 38.47629114238159,
      "longitude_deg": -152.6087641599588,
      "semi_major_axis_km": 6734.494974968108,
      "eccentricity": 0.00024852,
      "inclination_deg": 42.9993,
      "raan_deg": 121.3337,
      "arg_perigee_deg": 45.4227,
      "mean_anomaly_deg": 314.6843,
      "mean_motion_rev_day": 15.70887964
    }
  ]
}